start=new Date('2022-07-24T00:00:00.000Z').valueOf();
sats=[{"ARG_OF_PERICENTER":"70.9667","NORAD_CAT_ID":"52843","RCS_SIZE":"LARGE","OBJECT_ID":"2022-062P","INCLINATION":"53.2175","SEMIMAJOR_AXIS":"6780.431","COUNTRY_CODE":"US","GP_ID":"208739665","LAUNCH_DATE":"2022-06-17","ELEMENT_SET_NO":"999","OBJECT_TYPE":"PAYLOAD","CLASSIFICATION_TYPE":"U","DECAY_DATE":null,"OBJECT_NAME":"STARLINK-4188","REF_FRAME":"TEME","FILE":"3520602","APOAPSIS":"403.042","REV_AT_EPOCH":"130","SITE":"AFETR","EPOCH":"2022-07-23T22:00:00.999936","TIME_SYSTEM":"UTC","BSTAR":"-0.01807300000000","MEAN_MOTION":"15.54951410","ECCENTRICITY":"0.00011010","MEAN_MOTION_DOT":"-0.01113754","TLE_LINE2":"2 52843  53.2175 225.3588 0001101  70.9667 235.2555 15.54951410  1304","PERIOD":"92.607","MEAN_ELEMENT_THEORY":"SGP4","MEAN_ANOMALY":"235.2555","RA_OF_ASC_NODE":"225.3588","TLE_LINE1":"1 52843U 22062P   22204.91667824 -.01113754  00000-0 -18073-1 0  9991","PERIAPSIS":"401.549","MEAN_MOTION_DDOT":"0.0000000000000","CENTER_NAME":"EARTH","EPHEMERIS_TYPE":"0"},{"SITE":"AFETR","REV_AT_EPOCH":"130","EPOCH":"2022-07-23T22:00:00.999936","BSTAR":"-0.01809200000000","TIME_SYSTEM":"UTC","MEAN_MOTION":"15.54922170","REF_FRAME":"TEME","FILE":"3520602","APOAPSIS":"403.136","TLE_LINE2":"2 52844  53.2174 225.3183 0001113  69.7288 233.3368 15.54922170  1305","PERIOD":"92.609","MEAN_ELEMENT_THEORY":"SGP4","MEAN_ANOMALY":"233.3368","RA_OF_ASC_NODE":"225.3183","TLE_LINE1":"1 52844U 22062Q   22204.91667824 -.01113725  00000-0 -18092-1 0  9991","MEAN_MOTION_DDOT":"0.0000000000000","PERIAPSIS":"401.626","CENTER_NAME":"EARTH","EPHEMERIS_TYPE":"0","ECCENTRICITY":"0.00011130","MEAN_MOTION_DOT":"-0.01113725","SEMIMAJOR_AXIS":"6780.516","COUNTRY_CODE":"US","GP_ID":"208739895","ARG_OF_PERICENTER":"69.7288","NORAD_CAT_ID":"52844","RCS_SIZE":"LARGE","OBJECT_ID":"2022-062Q","INCLINATION":"53.2174","CLASSIFICATION_TYPE":"U","DECAY_DATE":null,"OBJECT_NAME":"STARLINK-4208","LAUNCH_DATE":"2022-06-17","ELEMENT_SET_NO":"999","OBJECT_TYPE":"PAYLOAD"},{"REF_FRAME":"TEME","APOAPSIS":"403.128","FILE":"3520602","BSTAR":"-0.01807500000000","TIME_SYSTEM":"UTC","MEAN_MOTION":"15.54958889","SITE":"AFETR","REV_AT_EPOCH":"130","EPOCH":"2022-07-23T22:00:00.999936","MEAN_MOTION_DOT":"-0.01114193","ECCENTRICITY":"0.00012600","CENTER_NAME":"EARTH","MEAN_MOTION_DDOT":"0.0000000000000","PERIAPSIS":"401.420","EPHEMERIS_TYPE":"0","PERIOD":"92.607","MEAN_ELEMENT_THEORY":"SGP4","TLE_LINE2":"2 52845  53.2175 225.3660 0001260  50.8144 256.1967 15.54958889  1306","RA_OF_ASC_NODE":"225.3660","TLE_LINE1":"1 52845U 22062R   22204.91667824 -.01114193  00000-0 -18075-1 0  9993","MEAN_ANOMALY":"256.1967","INCLINATION":"53.2175","OBJECT_ID":"2022-062R","NORAD_CAT_ID":"52845","RCS_SIZE":"LARGE","ARG_OF_PERICENTER":"50.8144","SEMIMAJOR_AXIS":"6780.409","GP_ID":"208739780","COUNTRY_CODE":"US","LAUNCH_DATE":"2022-06-17","OBJECT_TYPE":"PAYLOAD","ELEMENT_SET_NO":"999","DECAY_DATE":null,"OBJECT_NAME":"STARLINK-4168","CLASSIFICATION_TYPE":"U"},{"REF_FRAME":"TEME","FILE":"3520602","APOAPSIS":"403.056","REV_AT_EPOCH":"130","SITE":"AFETR","EPOCH":"2022-07-23T22:00:00.999936","TIME_SYSTEM":"UTC","BSTAR":"-0.01807700000000","MEAN_MOTION":"15.54944070","ECCENTRICITY":"0.00010900","MEAN_MOTION_DOT":"-0.01113699","TLE_LINE2":"2 52846  53.2175 225.3488 0001090  74.1613 231.2719 15.54944070  1302","PERIOD":"92.608","MEAN_ELEMENT_THEORY":"SGP4","MEAN_ANOMALY":"231.2719","RA_OF_ASC_NODE":"225.3488","TLE_LINE1":"1 52846U 22062S   22204.91667824 -.01113699  00000-0 -18077-1 0  9996","PERIAPSIS":"401.578","MEAN_MOTION_DDOT":"0.0000000000000","CENTER_NAME":"EARTH","EPHEMERIS_TYPE":"0","ARG_OF_PERICENTER":"74.1613","RCS_SIZE":"LARGE","NORAD_CAT_ID":"52846","OBJECT_ID":"2022-062S","INCLINATION":"53.2175","SEMIMAJOR_AXIS":"6780.452","COUNTRY_CODE":"US","GP_ID":"208740105","LAUNCH_DATE":"2022-06-17","ELEMENT_SET_NO":"999","OBJECT_TYPE":"PAYLOAD","CLASSIFICATION_TYPE":"U","DECAY_DATE":null,"OBJECT_NAME":"STARLINK-4212"},{"PERIAPSIS":"401.508","MEAN_MOTION_DDOT":"0.0000000000000","CENTER_NAME":"EARTH","EPHEMERIS_TYPE":"0","TLE_LINE2":"2 52847  53.2175 225.3775 0001069  80.0611 228.5280 15.54973034  1306","MEAN_ELEMENT_THEORY":"SGP4","PERIOD":"92.606","MEAN_ANOMALY":"228.5280","TLE_LINE1":"1 52847U 22062T   22204.91667824 -.01113658  00000-0 -18057-1 0  9990","RA_OF_ASC_NODE":"225.3775","ECCENTRICITY":"0.00010690","MEAN_MOTION_DOT":"-0.01113658","BSTAR":"-0.01805700000000","TIME_SYSTEM":"UTC","MEAN_MOTION":"15.54973034","SITE":"AFETR","REV_AT_EPOCH":"130","EPOCH":"2022-07-23T22:00:00.999936","REF_FRAME":"TEME","FILE":"3520602","APOAPSIS":"402.958","DECAY_DATE":null,"OBJECT_NAME":"STARLINK-4206","CLASSIFICATION_TYPE":"U","LAUNCH_DATE":"2022-06-17","ELEMENT_SET_NO":"999","OBJECT_TYPE":"PAYLOAD","SEMIMAJOR_AXIS":"6780.368","COUNTRY_CODE":"US","GP_ID":"208739299","OBJECT_ID":"2022-062T","INCLINATION":"53.2175","ARG_OF_PERICENTER":"80.0611","NORAD_CAT_ID":"52847","RCS_SIZE":"LARGE"},{"MEAN_MOTION_DOT":"-0.01113654","ECCENTRICITY":"0.00010860","RA_OF_ASC_NODE":"225.3285","TLE_LINE1":"1 52848U 22062U   22204.91667824 -.01113654  00000-0 -18086-1 0  9999","MEAN_ANOMALY":"227.2079","PERIOD":"92.609","MEAN_ELEMENT_THEORY":"SGP4","TLE_LINE2":"2 52848  53.2174 225.3285 0001086  76.6470 227.2079 15.54929429  1306","EPHEMERIS_TYPE":"0","CENTER_NAME":"EARTH","PERIAPSIS":"401.623","MEAN_MOTION_DDOT":"0.0000000000000","APOAPSIS":"403.096","FILE":"3520602","REF_FRAME":"TEME","EPOCH":"2022-07-23T22:00:00.999936","SITE":"AFETR","REV_AT_EPOCH":"130","MEAN_MOTION":"15.54929429","BSTAR":"-0.01808600000000","TIME_SYSTEM":"UTC","OBJECT_TYPE":"PAYLOAD","ELEMENT_SET_NO":"999","LAUNCH_DATE":"2022-06-17","CLASSIFICATION_TYPE":"U","OBJECT_NAME":"STARLINK-4202","DECAY_DATE":null,"RCS_SIZE":"LARGE","NORAD_CAT_ID":"52848","ARG_OF_PERICENTER":"76.6470","INCLINATION":"53.2174","OBJECT_ID":"2022-062U","GP_ID":"208739530","COUNTRY_CODE":"US","SEMIMAJOR_AXIS":"6780.495"},{"REV_AT_EPOCH":"130","SITE":"AFETR","EPOCH":"2022-07-23T22:00:00.999936","BSTAR":"0.00067636000000","TIME_SYSTEM":"UTC","MEAN_MOTION":"15.73157962","REF_FRAME":"TEME","FILE":"3520602","APOAPSIS":"352.054","TLE_LINE2":"2 52849  53.2130 224.7692 0003231   7.1037 191.7500 15.73157962  1306","MEAN_ELEMENT_THEORY":"SGP4","PERIOD":"91.536","MEAN_ANOMALY":"191.7500","TLE_LINE1":"1 52849U 22062V   22204.91667824  .00095230  00000-0  67636-3 0  9993","RA_OF_ASC_NODE":"224.7692","PERIAPSIS":"347.706","MEAN_MOTION_DDOT":"0.0000000000000","CENTER_NAME":"EARTH","EPHEMERIS_TYPE":"0","ECCENTRICITY":"0.00032310","MEAN_MOTION_DOT":"0.00095230","SEMIMAJOR_AXIS":"6728.015","COUNTRY_CODE":"US","GP_ID":"208739415","ARG_OF_PERICENTER":"7.1037","RCS_SIZE":"LARGE","NORAD_CAT_ID":"52849","OBJECT_ID":"2022-062V","INCLINATION":"53.2130","CLASSIFICATION_TYPE":"U","DECAY_DATE":null,"OBJECT_NAME":"STARLINK-4197","LAUNCH_DATE":"2022-06-17","ELEMENT_SET_NO":"999","OBJECT_TYPE":"PAYLOAD"},{"REF_FRAME":"TEME","APOAPSIS":"402.979","FILE":"3520602","REV_AT_EPOCH":"130","SITE":"AFETR","EPOCH":"2022-07-23T22:00:00.999936","BSTAR":"-0.01806100000000","TIME_SYSTEM":"UTC","MEAN_MOTION":"15.54965716","ECCENTRICITY":"0.00010690","MEAN_MOTION_DOT":"-0.01113608","TLE_LINE2":"2 52850  53.2175 225.3673 0001069  81.1564 226.6439 15.54965716  1309","PERIOD":"92.607","MEAN_ELEMENT_THEORY":"SGP4","MEAN_ANOMALY":"226.6439","RA_OF_ASC_NODE":"225.3673","TLE_LINE1":"1 52850U 22062W   22204.91667824 -.01113608  00000-0 -18061-1 0  9994","MEAN_MOTION_DDOT":"0.0000000000000","PERIAPSIS":"401.529","CENTER_NAME":"EARTH","EPHEMERIS_TYPE":"0","ARG_OF_PERICENTER":"81.1564","RCS_SIZE":"LARGE","NORAD_CAT_ID":"52850","OBJECT_ID":"2022-062W","INCLINATION":"53.2175","SEMIMAJOR_AXIS":"6780.389","COUNTRY_CODE":"US","GP_ID":"208740012","LAUNCH_DATE":"2022-06-17","ELEMENT_SET_NO":"999","OBJECT_TYPE":"PAYLOAD","CLASSIFICATION_TYPE":"U","DECAY_DATE":null,"OBJECT_NAME":"STARLINK-4187"},{"MEAN_MOTION_DOT":"0.00094756","ECCENTRICITY":"0.00034050","RA_OF_ASC_NODE":"224.7675","TLE_LINE1":"1 52851U 22062X   22204.91667824  .00094756  00000-0  67295-3 0  9999","MEAN_ANOMALY":"190.6974","MEAN_ELEMENT_THEORY":"SGP4","PERIOD":"91.535","TLE_LINE2":"2 52851  53.2130 224.7675 0003405   8.7657 190.6974 15.73160920  1309","EPHEMERIS_TYPE":"0","CENTER_NAME":"EARTH","PERIAPSIS":"347.581","MEAN_MOTION_DDOT":"0.0000000000000","FILE":"3520602","APOAPSIS":"352.162","REF_FRAME":"TEME","EPOCH":"2022-07-23T22:00:00.999936","SITE":"AFETR","REV_AT_EPOCH":"130","MEAN_MOTION":"15.73160920","BSTAR":"0.00067295000000","TIME_SYSTEM":"UTC","OBJECT_TYPE":"PAYLOAD","ELEMENT_SET_NO":"999","LAUNCH_DATE":"2022-06-17","CLASSIFICATION_TYPE":"U","OBJECT_NAME":"STARLINK-3809","DECAY_DATE":null,"NORAD_CAT_ID":"52851","RCS_SIZE":"LARGE","ARG_OF_PERICENTER":"8.7657","INCLINATION":"53.2130","OBJECT_ID":"2022-062X","GP_ID":"208739666","COUNTRY_CODE":"US","SEMIMAJOR_AXIS":"6728.007"},{"LAUNCH_DATE":"2022-06-17","ELEMENT_SET_NO":"999","OBJECT_TYPE":"PAYLOAD","CLASSIFICATION_TYPE":"U","DECAY_DATE":null,"OBJECT_NAME":"STARLINK-4184","ARG_OF_PERICENTER":"6.4839","RCS_SIZE":"LARGE","NORAD_CAT_ID":"52852","OBJECT_ID":"2022-062Y","INCLINATION":"53.2146","SEMIMAJOR_AXIS":"6728.094","COUNTRY_CODE":"US","GP_ID":"208739896","ECCENTRICITY":"0.00031710","MEAN_MOTION_DOT":"0.00085837","TLE_LINE2":"2 52852  53.2146 224.7694 0003171   6.4839 191.7705 15.73130349  1301","PERIOD":"91.537","MEAN_ELEMENT_THEORY":"SGP4","MEAN_ANOMALY":"191.7705","RA_OF_ASC_NODE":"224.7694","TLE_LINE1":"1 52852U 22062Y   22204.91667824  .00085837  00000-0  61149-3 0  9992","PERIAPSIS":"347.825","MEAN_MOTION_DDOT":"0.0000000000000","CENTER_NAME":"EARTH","EPHEMERIS_TYPE":"0","REF_FRAME":"TEME","APOAPSIS":"352.092","FILE":"3520602","SITE":"AFETR","REV_AT_EPOCH":"130","EPOCH":"2022-07-23T22:00:00.999936","TIME_SYSTEM":"UTC","BSTAR":"0.00061149000000","MEAN_MOTION":"15.73130349"}];
